CCSDS_OMM_VERS = 2.0
CREATION_DATE  = 
ORIGINATOR     = 

OBJECT_NAME    = STARLINK-36072
OBJECT_ID      = 2025-281J
CENTER_NAME    = EARTH
REF_FRAME      = TEME
TIME_SYSTEM    = UTC
MEAN_ELEMENT_THEORY = SGP/SGP4

EPOCH          = 2025-12-10T16:00:01.999584
MEAN_MOTION    = 15.95902482
ECCENTRICITY   = .00016438
INCLINATION    = 43.0014
RA_OF_ASC_NODE = 135.2663
ARG_OF_PERICENTER = 276.2049
MEAN_ANOMALY   = 226.6934

EPHEMERIS_TYPE = 0
CLASSIFICATION_TYPE = U
NORAD_CAT_ID   = 66856
ELEMENT_SET_NO = 999
REV_AT_EPOCH   = 246
BSTAR          = -.27360976E-2
MEAN_MOTION_DOT = -.115835E-1
MEAN_MOTION_DDOT = .41087948E-3

CCSDS_OMM_VERS = 2.0
CREATION_DATE  = 
ORIGINATOR     = 

OBJECT_NAME    = STARLINK-36083
OBJECT_ID      = 2025-281K
CENTER_NAME    = EARTH
REF_FRAME      = TEME
TIME_SYSTEM    = UTC
MEAN_ELEMENT_THEORY = SGP/SGP4

EPOCH          = 2025-12-10T16:00:01.999584
MEAN_MOTION    = 15.95976314
ECCENTRICITY   = .00016557
INCLINATION    = 43.0014
RA_OF_ASC_NODE = 135.2616
ARG_OF_PERICENTER = 277.0441
MEAN_ANOMALY   = 227.7970

EPHEMERIS_TYPE = 0
CLASSIFICATION_TYPE = U
NORAD_CAT_ID   = 66857
ELEMENT_SET_NO = 999
REV_AT_EPOCH   = 246
BSTAR          = -.27805964E-2
MEAN_MOTION_DOT = -.1181694E-1
MEAN_MOTION_DDOT = .42645657E-3

CCSDS_OMM_VERS = 2.0
CREATION_DATE  = 
ORIGINATOR     = 

OBJECT_NAME    = STARLINK-35118
OBJECT_ID      = 2025-281L
CENTER_NAME    = EARTH
REF_FRAME      = TEME
TIME_SYSTEM    = UTC
MEAN_ELEMENT_THEORY = SGP/SGP4

EPOCH          = 2025-12-10T16:00:01.999584
MEAN_MOTION    = 15.96046904
ECCENTRICITY   = .00016257
INCLINATION    = 43.0016
RA_OF_ASC_NODE = 135.2559
ARG_OF_PERICENTER = 274.4321
MEAN_ANOMALY   = 232.4648

EPHEMERIS_TYPE = 0
CLASSIFICATION_TYPE = U
NORAD_CAT_ID   = 66858
ELEMENT_SET_NO = 999
REV_AT_EPOCH   = 246
BSTAR          = -.2802372E-2
MEAN_MOTION_DOT = -.1195394E-1
MEAN_MOTION_DDOT = .43584987E-3

CCSDS_OMM_VERS = 2.0
CREATION_DATE  = 
ORIGINATOR     = 

OBJECT_NAME    = STARLINK-35646
OBJECT_ID      = 2025-281M
CENTER_NAME    = EARTH
REF_FRAME      = TEME
TIME_SYSTEM    = UTC
MEAN_ELEMENT_THEORY = SGP/SGP4

EPOCH          = 2025-12-10T16:00:01.999584
MEAN_MOTION    = 15.96125298
ECCENTRICITY   = .00016815
INCLINATION    = 43.0016
RA_OF_ASC_NODE = 135.2504
ARG_OF_PERICENTER = 276.3454
MEAN_ANOMALY   = 232.8564

EPHEMERIS_TYPE = 0
CLASSIFICATION_TYPE = U
NORAD_CAT_ID   = 66859
ELEMENT_SET_NO = 999
REV_AT_EPOCH   = 246
BSTAR          = -.28252473E-2
MEAN_MOTION_DOT = -.1210178E-1
MEAN_MOTION_DDOT = .44610917E-3

CCSDS_OMM_VERS = 2.0
CREATION_DATE  = 
ORIGINATOR     = 

OBJECT_NAME    = STARLINK-35987
OBJECT_ID      = 2025-281N
CENTER_NAME    = EARTH
REF_FRAME      = TEME
TIME_SYSTEM    = UTC
MEAN_ELEMENT_THEORY = SGP/SGP4

EPOCH          = 2025-12-10T16:00:01.999584
MEAN_MOTION    = 15.96505755
ECCENTRICITY   = .00015818
INCLINATION    = 43.0016
RA_OF_ASC_NODE = 135.2202
ARG_OF_PERICENTER = 268.6575
MEAN_ANOMALY   = 252.4584

EPHEMERIS_TYPE = 0
CLASSIFICATION_TYPE = U
NORAD_CAT_ID   = 66860
ELEMENT_SET_NO = 999
REV_AT_EPOCH   = 246
BSTAR          = -.28282072E-2
MEAN_MOTION_DOT = -.1236658E-1
MEAN_MOTION_DDOT = .46592572E-3

CCSDS_OMM_VERS = 2.0
CREATION_DATE  = 
ORIGINATOR     = 

OBJECT_NAME    = STARLINK-35991
OBJECT_ID      = 2025-281P
CENTER_NAME    = EARTH
REF_FRAME      = TEME
TIME_SYSTEM    = UTC
MEAN_ELEMENT_THEORY = SGP/SGP4

EPOCH          = 2025-12-10T16:00:01.999584
MEAN_MOTION    = 15.96277539
ECCENTRICITY   = .00015893
INCLINATION    = 43.0017
RA_OF_ASC_NODE = 135.2384
ARG_OF_PERICENTER = 271.8161
MEAN_ANOMALY   = 242.1053

EPHEMERIS_TYPE = 0
CLASSIFICATION_TYPE = U
NORAD_CAT_ID   = 66861
ELEMENT_SET_NO = 999
REV_AT_EPOCH   = 246
BSTAR          = -.28387746E-2
MEAN_MOTION_DOT = -.1225954E-1
MEAN_MOTION_DDOT = .45750931E-3

CCSDS_OMM_VERS = 2.0
CREATION_DATE  = 
ORIGINATOR     = 

OBJECT_NAME    = STARLINK-35974
OBJECT_ID      = 2025-281Q
CENTER_NAME    = EARTH
REF_FRAME      = TEME
TIME_SYSTEM    = UTC
MEAN_ELEMENT_THEORY = SGP/SGP4

EPOCH          = 2025-12-10T16:00:01.999584
MEAN_MOTION    = 15.96204816
ECCENTRICITY   = .00015852
INCLINATION    = 43.0016
RA_OF_ASC_NODE = 135.2443
ARG_OF_PERICENTER = 276.2426
MEAN_ANOMALY   = 235.4564

EPHEMERIS_TYPE = 0
CLASSIFICATION_TYPE = U
NORAD_CAT_ID   = 66862
ELEMENT_SET_NO = 999
REV_AT_EPOCH   = 246
BSTAR          = -.28310506E-2
MEAN_MOTION_DOT = -.1217847E-1
MEAN_MOTION_DDOT = .45165679E-3

CCSDS_OMM_VERS = 2.0
CREATION_DATE  = 
ORIGINATOR     = 

OBJECT_NAME    = STARLINK-36134
OBJECT_ID      = 2025-281R
CENTER_NAME    = EARTH
REF_FRAME      = TEME
TIME_SYSTEM    = UTC
MEAN_ELEMENT_THEORY = SGP/SGP4

EPOCH          = 2025-12-10T16:00:01.999584
MEAN_MOTION    = 15.96368931
ECCENTRICITY   = .00015593
INCLINATION    = 43.0020
RA_OF_ASC_NODE = 135.2311
ARG_OF_PERICENTER = 271.3805
MEAN_ANOMALY   = 245.4654

EPHEMERIS_TYPE = 0
CLASSIFICATION_TYPE = U
NORAD_CAT_ID   = 66863
ELEMENT_SET_NO = 999
REV_AT_EPOCH   = 246
BSTAR          = -.28390273E-2
MEAN_MOTION_DOT = -.1232146E-1
MEAN_MOTION_DDOT = .46217446E-3

CCSDS_OMM_VERS = 2.0
CREATION_DATE  = 
ORIGINATOR     = 

OBJECT_NAME    = STARLINK-36070
OBJECT_ID      = 2025-281S
CENTER_NAME    = EARTH
REF_FRAME      = TEME
TIME_SYSTEM    = UTC
MEAN_ELEMENT_THEORY = SGP/SGP4

EPOCH          = 2025-12-10T16:00:01.999584
MEAN_MOTION    = 15.96435157
ECCENTRICITY   = .00015459
INCLINATION    = 43.0019
RA_OF_ASC_NODE = 135.2256
ARG_OF_PERICENTER = 273.7453
MEAN_ANOMALY   = 245.1559

EPHEMERIS_TYPE = 0
CLASSIFICATION_TYPE = U
NORAD_CAT_ID   = 66864
ELEMENT_SET_NO = 999
REV_AT_EPOCH   = 246
BSTAR          = -.28280569E-2
MEAN_MOTION_DOT = -.1231853E-1
MEAN_MOTION_DDOT = .46228589E-3

CCSDS_OMM_VERS = 2.0
CREATION_DATE  = 
ORIGINATOR     = 

OBJECT_NAME    = STARLINK-36117
OBJECT_ID      = 2025-281T
CENTER_NAME    = EARTH
REF_FRAME      = TEME
TIME_SYSTEM    = UTC
MEAN_ELEMENT_THEORY = SGP/SGP4

EPOCH          = 2025-12-10T16:00:01.999584
MEAN_MOTION    = 15.96583953
ECCENTRICITY   = .00015871
INCLINATION    = 43.0019
RA_OF_ASC_NODE = 135.2145
ARG_OF_PERICENTER = 270.3957
MEAN_ANOMALY   = 253.0482

EPHEMERIS_TYPE = 0
CLASSIFICATION_TYPE = U
NORAD_CAT_ID   = 66865
ELEMENT_SET_NO = 999
REV_AT_EPOCH   = 246
BSTAR          = -.28296854E-2
MEAN_MOTION_DOT = -.1242568E-1
MEAN_MOTION_DDOT = .47038241E-3

CCSDS_OMM_VERS = 2.0
CREATION_DATE  = 
ORIGINATOR     = 

OBJECT_NAME    = STARLINK-36126
OBJECT_ID      = 2025-281U
CENTER_NAME    = EARTH
REF_FRAME      = TEME
TIME_SYSTEM    = UTC
MEAN_ELEMENT_THEORY = SGP/SGP4

EPOCH          = 2025-12-10T18:00:02.000160
MEAN_MOTION    = 15.96440327
ECCENTRICITY   = .0001689
INCLINATION    = 43.0020
RA_OF_ASC_NODE = 134.6885
ARG_OF_PERICENTER = 273.0721
MEAN_ANOMALY   = 11.8299

EPHEMERIS_TYPE = 0
CLASSIFICATION_TYPE = U
NORAD_CAT_ID   = 66866
ELEMENT_SET_NO = 999
REV_AT_EPOCH   = 247
BSTAR          = -.28095E-2
MEAN_MOTION_DOT = -.1224235E-1
MEAN_MOTION_DDOT = .4571E-3

CCSDS_OMM_VERS = 2.0
CREATION_DATE  = 
ORIGINATOR     = 

OBJECT_NAME    = STARLINK-36101
OBJECT_ID      = 2025-281V
CENTER_NAME    = EARTH
REF_FRAME      = TEME
TIME_SYSTEM    = UTC
MEAN_ELEMENT_THEORY = SGP/SGP4

EPOCH          = 2025-12-10T18:00:02.000160
MEAN_MOTION    = 15.96520047
ECCENTRICITY   = .0001686
INCLINATION    = 43.0022
RA_OF_ASC_NODE = 134.6817
ARG_OF_PERICENTER = 274.9191
MEAN_ANOMALY   = 12.5728

EPHEMERIS_TYPE = 0
CLASSIFICATION_TYPE = U
NORAD_CAT_ID   = 66867
ELEMENT_SET_NO = 999
REV_AT_EPOCH   = 247
BSTAR          = -.27961E-2
MEAN_MOTION_DOT = -.1223728E-1
MEAN_MOTION_DDOT = .45712E-3

